DRAGON CRS-25           
1 53113U 22081A   22213.47757853  .00004606  00000+0  88053-4 0  9995
2 53113  51.6434 112.2418 0005228  73.0757 103.9555 15.50193086352201
CSS (WENTIAN)           
1 53239U 22085A   22213.55071138  .00005370  00000+0  64856-4 0  9996
2 53239  41.4733 302.6741 0007071 324.8878  51.2096 15.61465228 71869
1998-067TQ              
1 53305U 98067TQ  22214.08874002  .00016752  00000+0  29427-3 0  9993
2 53305  51.6417 109.1972 0004635  77.4481 282.7027 15.50625522  1787
RS4S                    
1 53306U 98067TR  22214.21669973  .00018408  00000+0  32076-3 0  9992
2 53306  51.6415 108.5525 0004239  81.8357 278.3113 15.50781874  1807
1998-067TS              
1 53307U 98067TS  22213.89433921  .00019043  00000+0  33146-3 0  9993
2 53307  51.6413 110.1501 0004173  72.0347 288.1097 15.50787882  1789
RS3S                    
1 53308U 98067TT  22213.82973594  .00019011  00000+0  33072-3 0  9995
2 53308  51.6414 110.4690 0003951  74.7017 285.4409 15.50806449  1800
RS1S                    
1 53309U 98067TU  22213.89399850  .00019081  00000+0  33152-3 0  9996
2 53309  51.6412 110.1476 0004638  85.1744 274.9775 15.50837135  1764
RS5S                    
1 53310U 98067TV  22213.89388031  .00018377  00000+0  31959-3 0  9997
2 53310  51.6417 110.1473 0004262  86.1856 273.9620 15.50839468  1798
RS6S                    
1 53311U 98067TW  22213.89360757  .00020797  00000+0  35975-3 0  9994
2 53311  51.6411 110.1451 0003712  70.7432 289.3959 15.50902360  1818
RS9S                    
1 53312U 98067TX  22213.89361933  .00019417  00000+0  33653-3 0  9990
2 53312  51.6415 110.1445 0004856  86.9523 273.2022 15.50891989  1756
RS12S                   
1 53313U 98067TY  22213.89332310  .00018861  00000+0  32672-3 0  9990
2 53313  51.6415 110.1434 0004381  90.5725 269.5767 15.50930707  1805
1998-067TZ              
1 53321U 98067TZ  22208.36978215  .00011156  00000+0  19950-3 0  9999
2 53321  51.6431 137.5435 0004310  64.8569  34.2552 15.50517379   947
1998-067UA              
1 53322U 98067UA  22206.86964718  .00005344  00000+0  10000-3 0  9995
2 53322  51.6406 144.9825 0004290  48.8609 311.2797 15.50444995   660
